[["observe", {"vessel_name": "#autoLOC_501232", "vessel_type": "VesselSituation.orbiting", "vessel_situation": "VesselSituation.orbiting", "mission_time": 1762043774.131876, "universal_time": 1318.5711914061155, "current_body": "Kerbin", "position": {"x": 0.0, "y": 0.0, "z": 0.0}, "velocity": {"x": 0.0, "y": 0.0, "z": 0.0}, "altitude": 1093393.5865609208, "surface_altitude": 1092202.0957279622, "speed": 0.0, "vertical_speed": 0, "g_force": 0, "orbit_parameters": {"apoapsis_altitude": 4181850.351436139, "periapsis_altitude": 96646.37442481972, "inclination": 0.002445138882091371, "eccentricity": 0.7456797332245042, "period": 0, "time_to_apoapsis": 0, "time_to_periapsis": 0}, "resources": {"LiquidFuel": {"amount": 732.3236083984375, "max": 5040.0}, "ElectricCharge": {"amount": 949.0036010742188, "max": 950.0}}, "vessel_status": {"mass": 28141.912109375, "dry_mass": 0, "thrust": 0.0, "available_thrust": 1500000.0, "max_thrust": 1500000.0, "specific_impulse": 0, "control_state": {"throttle": 0.0, "sas": false, "rcs": false, "gear": false, "lights": false, "brakes": false}}, "mechjeb_status": {"api_ready": true, "ascent_status": "Off"}, "part_status": {"part_count": 28, "stage_count": 0, "current_stage": 4}, "nearby_vessels": [], "comprehensive_telemetry": {"timestamp": 1762043774.2359118, "basic_vessel": {"name": "#autoLOC_501232", "type": "VesselType.ship", "situation": "VesselSituation.orbiting", "mass": 28141.912109375, "dry_mass": 19485.0, "crew_count": 3, "crew_capacity": 3, "biome": "Highlands", "recoverable": false, "met": 1243.1511914061134}, "performance": {"thrust": 0.0, "max_thrust": 1500000.0, "max_vacuum_thrust": 1500000.0, "specific_impulse": 310.0, "kerbin_sea_level_specific_impulse": 285.0, "vacuum_specific_impulse": 310.0}, "torque": {"available_control_surface_torque": [[0.0, 0.0, 0.0], [0.0, 0.0, 0.0]], "available_engine_torque": [[0.0, 0.0, 0.0], [0.0, 0.0, 0.0]], "available_rcs_torque": [[0.0, 0.0, 0.0], [0.0, 0.0, 0.0]], "available_reaction_wheel_torque": [[15000.0, 15000.0, 15000.0], [-15000.0, -15000.0, -15000.0]], "available_thrust": 1500000.0, "available_torque": [[15000.0, 15000.0, 15000.0], [-15000.0, -15000.0, -15000.0]]}, "position_velocity": {"position_vessel": [0.0, 0.0, 0.0], "velocity_vessel": [0.0, 0.0, 0.0], "position_orbital": [0.0, 0.0, 0.0], "velocity_orbital": [0.0, 0.0, 0.0], "position_surface": [0.0, 0.0, 0.0], "velocity_surface": [0.0, 0.0, 0.0], "speed": 0.0, "horizontal_speed": 0.0, "vertical_speed": 0.0, "equivalent_air_speed": 0.0, "true_air_speed": 1384.5223388671875, "terminal_velocity": Infinity}, "altitude_location": {"mean_altitude": 1093464.1732501488, "surface_altitude": 1092341.4019284935, "bedrock_altitude": 1092341.4019284935, "latitude": 0.07326213971692332, "longitude": 46.9075306885384, "elevation": 1123.1104043512605}, "aerodynamics": {"atmosphere_density": 0.0, "dynamic_pressure": 0.0, "static_pressure": 0.0, "static_pressure_at_msl": 101325.0, "drag": [-1.5573258944697315e-06, -3.376240042192264e-09, -9.663224140468534e-07], "lift": [-3.6717556262241706e-06, -1.0647764543222627e-06, 5.921124225839872e-06], "mach": 0.0, "drag_coefficient": null, "lift_coefficient": null, "ballistic_coefficient": null, "reynolds_number": null}, "orientation": {"heading": 268.8674621582031, "pitch": -46.59218215942383, "roll": -170.15469360351562, "direction": [-0.7264807690105076, -0.013582379337121267, -0.687052553469852], "rotation": [0.6801338733674324, -0.6300912098917222, 0.21031418782950018, -0.31011425900794337], "angle_of_attack": 11.245075225830078, "sideslip_angle": 2.453235387802124}, "flight_dynamics": {"g_force": 3.737408769666217e-05, "center_of_mass": [0.0, 0.0, 0.0], "aerodynamic_force": [-5.315750886839238e-06, 2.895447288524308e-07, 5.109999334366202e-06], "thrust_specific_fuel_consumption": null, "stall_fraction": null}, "reference_vectors": {"prograde": [0.6930339080377137, 0.0015024532702899696, 0.7209034227579922], "retrograde": [-0.6930339080377137, -0.0015024532702899696, -0.7209034227579922], "normal": [-1.108163040497434e-15, 0.9999978282173405, -0.002084121062346104], "anti_normal": [1.108163040497434e-15, -0.9999978282173405, 0.002084121062346104], "radial": [0.7209049884069453, -0.0014443665646605883, -0.6930324029186897], "anti_radial": [-0.7209049884069453, 0.0014443665646605883, 0.6930324029186897]}, "reference_frames": {"reference_frames": {"vessel": {"position": [0.0, 0.0, 0.0], "velocity": [0.0, 0.0, 0.0], "description": "Vessel-relative coordinates (X=right, Y=forward, Z=up)"}, "orbital": {"position": [0.0, 0.0, 0.0], "velocity": [0.0, 0.0, 0.0], "description": "Orbital coordinates (X=anti-radial, Y=prograde, Z=normal)"}, "surface": {"position": [0.0, 0.0, 0.0], "velocity": [0.0, 0.0, 0.0], "description": "Surface coordinates (X=zenith, Y=north, Z=east)"}}, "coordinate_systems": {"vessel_available": true, "orbital_available": true, "surface_available": true}}, "orbital": {"semi_major_axis": 2739248.362878088, "semi_minor_axis": 1825173.6109991434, "eccentricity": 0.7456797332204789, "inclination": 0.0024451388815446245, "longitude_of_ascending_node": 2.2236579749425838, "argument_of_periapsis": 4.875043561714201, "mean_anomaly": 0.39279152643058846, "eccentric_anomaly": 1.0333410228994688, "true_anomaly": 1.9584842839078316, "apoapsis": 4781850.3513336545, "periapsis": 696646.3744235547, "apoapsis_altitude": 4181850.35133293, "periapsis_altitude": 96646.37442355475, "period": 15157.976535005462, "orbital_speed": 1717.658331596856, "speed": 1697.4593572963915, "radius": 1693558.2868919126, "time_to_apoapsis": 6631.371714210114, "time_to_periapsis": 14210.359981712845, "time_to_soi_change": NaN, "epoch": 1318.6711914065625, "mean_anomaly_at_epoch": 0.3927998166996889, "body_name": "Kerbin"}, "control": {"pitch": 0.0, "yaw": 0.0, "roll": 0.0, "throttle": 0.0, "forward": -0.0, "up": 0.0, "right": -0.0, "sas": false, "rcs": false, "brakes": false, "gear": false, "lights": false, "abort": false, "custom_axis01": 0.0, "custom_axis02": 0.0, "custom_axis03": 0.0, "custom_axis04": 0.0, "wheel_steering": 0.0, "wheel_throttle": 0.0, "state": "ControlState.full", "source": "ControlSource.kerbal", "current_stage": 4, "stage_lock": false, "sas_mode": "SASMode.stability_assist", "input_mode": "ControlInputMode.additive"}, "resources": {"ElectricCharge": {"amount": 949.0036010742188, "max": 950.0, "flow_mode": null, "density": null}, "MonoPropellant": {"amount": 30.0, "max": 30.0, "flow_mode": null, "density": null}, "Ablator": {"amount": 399.9862060546875, "max": 800.0, "flow_mode": null, "density": null}, "LiquidFuel": {"amount": 732.3236083984375, "max": 5040.0, "flow_mode": null, "density": null}, "Oxidizer": {"amount": 895.061767578125, "max": 6160.0, "flow_mode": null, "density": null}}}, "execution_time": 414.4320602416992}]]